{
  "type": "FeatureCollection",
  "features": [
    {
      "type": "Feature",
      "properties": {
        "norad_id": 43262,
        "name": "GAOFEN-1 04",
        "group": "resource",
        "lat": 64.07653248250878,
        "lon": -109.92780259737364,
        "alt_km": 634.1505840590253,
        "timestamp": "2025-12-21T05:44:51.233464+00:00",
        "meta_object_name": "GAOFEN-1 04",
        "meta_object_id": "2018-031D",
        "meta_epoch": "2025-12-20T22:43:26.221728",
        "meta_mean_motion": 14.76421694,
        "meta_eccentricity": 7.128e-05,
        "meta_inclination": 98.0803,
        "meta_ra_of_asc_node": 52.7857,
        "meta_arg_of_pericenter": 54.1529,
        "meta_mean_anomaly": 305.9747,
        "meta_ephemeris_type": 0,
        "meta_classification_type": "U",
        "meta_norad_cat_id": 43262,
        "meta_element_set_no": 999,
        "meta_rev_at_epoch": 41638,
        "meta_bstar": 9.2180869e-05,
        "meta_mean_motion_dot": 5.89e-06,
        "meta_mean_motion_ddot": 0,
        "tle_line1": "1 43262U 18031D   25354.94683127  .00000589  00000+0  92181-4 0  9995",
        "tle_line2": "2 43262  98.0803  52.7857 0000712  54.1529 305.9747 14.76421694416388"
      },
      "geometry": {
        "type": "Point",
        "coordinates": [
          -109.92780259737364,
          64.07653248250878
        ]
      }
    },
    {
      "type": "Feature",
      "properties": {
        "norad_id": 43437,
        "name": "SENTINEL-3B",
        "group": "resource",
        "lat": -22.480973710749122,
        "lon": -123.29881492071766,
        "alt_km": 808.3964880637259,
        "timestamp": "2025-12-21T05:44:51.233474+00:00",
        "meta_object_name": "SENTINEL-3B",
        "meta_object_id": "2018-039A",
        "meta_epoch": "2025-12-20T22:04:06.287808",
        "meta_mean_motion": 14.26736896,
        "meta_eccentricity": 0.00016382,
        "meta_inclination": 98.6257,
        "meta_ra_of_asc_node": 59.9873,
        "meta_arg_of_pericenter": 93.791,
        "meta_mean_anomaly": 266.3458,
        "meta_ephemeris_type": 0,
        "meta_classification_type": "U",
        "meta_norad_cat_id": 43437,
        "meta_element_set_no": 999,
        "meta_rev_at_epoch": 39870,
        "meta_bstar": 6.0371471e-05,
        "meta_mean_motion_dot": 1.02e-06,
        "meta_mean_motion_ddot": 0,
        "tle_line1": "1 43437U 18039A   25354.91951722  .00000102  00000+0  60371-4 0  9990",
        "tle_line2": "2 43437  98.6257  59.9873 0001638  93.7910 266.3458 14.26736896398701"
      },
      "geometry": {
        "type": "Point",
        "coordinates": [
          -123.29881492071766,
          -22.480973710749122
        ]
      }
    },
    {
      "type": "Feature",
      "properties": {
        "norad_id": 43461,
        "name": "GAOFEN-5 01",
        "group": "resource",
        "lat": 38.68257630170882,
        "lon": 145.17775945129236,
        "alt_km": 689.2170211377725,
        "timestamp": "2025-12-21T05:44:51.233484+00:00",
        "meta_object_name": "GAOFEN-5 01",
        "meta_object_id": "2018-043A",
        "meta_epoch": "2025-12-20T20:53:01.011840",
        "meta_mean_motion": 14.60417832,
        "meta_eccentricity": 5.266e-05,
        "meta_inclination": 98.4337,
        "meta_ra_of_asc_node": 317.9797,
        "meta_arg_of_pericenter": 286.8492,
        "meta_mean_anomaly": 73.2649,
        "meta_ephemeris_type": 0,
        "meta_classification_type": "U",
        "meta_norad_cat_id": 43461,
        "meta_element_set_no": 999,
        "meta_rev_at_epoch": 40566,
        "meta_bstar": 7.5472217e-05,
        "meta_mean_motion_dot": 3.17e-06,
        "meta_mean_motion_ddot": 0,
        "tle_line1": "1 43461U 18043A   25354.87015060  .00000317  00000+0  75472-4 0  9999",
        "tle_line2": "2 43461  98.4337 317.9797 0000526 286.8492  73.2649 14.60417832405667"
      },
      "geometry": {
        "type": "Point",
        "coordinates": [
          145.17775945129236,
          38.68257630170882
        ]
      }
    },
    {
      "type": "Feature",
      "properties": {
        "norad_id": 43484,
        "name": "GAOFEN-6",
        "group": "resource",
        "lat": -82.1689693394552,
        "lon": 153.64647764083122,
        "alt_km": 653.1774213771514,
        "timestamp": "2025-12-21T05:44:51.233494+00:00",
        "meta_object_name": "GAOFEN-6",
        "meta_object_id": "2018-048A",
        "meta_epoch": "2025-12-20T22:01:31.761408",
        "meta_mean_motion": 14.76578142,
        "meta_eccentricity": 0.00128497,
        "meta_inclination": 97.8028,
        "meta_ra_of_asc_node": 58.9102,
        "meta_arg_of_pericenter": 39.452,
        "meta_mean_anomaly": 320.7624,
        "meta_ephemeris_type": 0,
        "meta_classification_type": "U",
        "meta_norad_cat_id": 43484,
        "meta_element_set_no": 999,
        "meta_rev_at_epoch": 40708,
        "meta_bstar": 2.0533561e-05,
        "meta_mean_motion_dot": 9.4e-07,
        "meta_mean_motion_ddot": 0,
        "tle_line1": "1 43484U 18048A   25354.91772872  .00000094  00000+0  20534-4 0  9996",
        "tle_line2": "2 43484  97.8028  58.9102 0012849  39.4520 320.7624 14.76578142407089"
      },
      "geometry": {
        "type": "Point",
        "coordinates": [
          153.64647764083122,
          -82.1689693394552
        ]
      }
    },
    {
      "type": "Feature",
      "properties": {
        "norad_id": 43585,
        "name": "GAOFEN-11 01",
        "group": "resource",
        "lat": 40.69317989978907,
        "lon": -115.69434723771225,
        "alt_km": 416.99939516777613,
        "timestamp": "2025-12-21T05:44:51.233505+00:00",
        "meta_object_name": "GAOFEN-11 01",
        "meta_object_id": "2018-063A",
        "meta_epoch": "2025-12-20T22:57:00.393984",
        "meta_mean_motion": 15.49427639,
        "meta_eccentricity": 0.00039131,
        "meta_inclination": 97.1559,
        "meta_ra_of_asc_node": 57.8224,
        "meta_arg_of_pericenter": 270.264,
        "meta_mean_anomaly": 89.8164,
        "meta_ephemeris_type": 0,
        "meta_classification_type": "U",
        "meta_norad_cat_id": 43585,
        "meta_element_set_no": 999,
        "meta_rev_at_epoch": 41269,
        "meta_bstar": 8.5832573e-05,
        "meta_mean_motion_dot": 4.623e-05,
        "meta_mean_motion_ddot": 0,
        "tle_line1": "1 43585U 18063A   25354.95625456  .00004623  00000+0  85833-4 0  9999",
        "tle_line2": "2 43585  97.1559  57.8224 0003913 270.2640  89.8164 15.49427639412696"
      },
      "geometry": {
        "type": "Point",
        "coordinates": [
          -115.69434723771225,
          40.69317989978907
        ]
      }
    },
    {
      "type": "Feature",
      "properties": {
        "norad_id": 43613,
        "name": "ICESAT-2",
        "group": "resource",
        "lat": -50.819881478056914,
        "lon": -114.50574233797677,
        "alt_km": 490.0933523982367,
        "timestamp": "2025-12-21T05:44:51.233515+00:00",
        "meta_object_name": "ICESAT-2",
        "meta_object_id": "2018-070A",
        "meta_epoch": "2025-12-20T22:06:44.031744",
        "meta_mean_motion": 15.28238807,
        "meta_eccentricity": 0.00028945,
        "meta_inclination": 92.0047,
        "meta_ra_of_asc_node": 242.9452,
        "meta_arg_of_pericenter": 120.5065,
        "meta_mean_anomaly": 239.6471,
        "meta_ephemeris_type": 0,
        "meta_classification_type": "U",
        "meta_norad_cat_id": 43613,
        "meta_element_set_no": 999,
        "meta_rev_at_epoch": 40523,
        "meta_bstar": 0.00031119304,
        "meta_mean_motion_dot": 8.56e-05,
        "meta_mean_motion_ddot": 0,
        "tle_line1": "1 43613U 18070A   25354.92134296  .00008560  00000+0  31119-3 0  9994",
        "tle_line2": "2 43613  92.0047 242.9452 0002894 120.5065 239.6471 15.28238807405231"
      },
      "geometry": {
        "type": "Point",
        "coordinates": [
          -114.50574233797677,
          -50.819881478056914
        ]
      }
    },
    {
      "type": "Feature",
      "properties": {
        "norad_id": 43719,
        "name": "HYSIS",
        "group": "resource",
        "lat": 8.423205265961629,
        "lon": 56.98121289966642,
        "alt_km": 634.8605240066627,
        "timestamp": "2025-12-21T05:44:51.233525+00:00",
        "meta_object_name": "HYSIS",
        "meta_object_id": "2018-096A",
        "meta_epoch": "2025-12-20T23:12:46.545696",
        "meta_mean_motion": 14.78665659,
        "meta_eccentricity": 0.00010385,
        "meta_inclination": 98.0094,
        "meta_ra_of_asc_node": 57.905,
        "meta_arg_of_pericenter": 52.729,
        "meta_mean_anomaly": 307.4016,
        "meta_ephemeris_type": 0,
        "meta_classification_type": "U",
        "meta_norad_cat_id": 43719,
        "meta_element_set_no": 999,
        "meta_rev_at_epoch": 38108,
        "meta_bstar": 0.00010505285,
        "meta_mean_motion_dot": 7.18e-06,
        "meta_mean_motion_ddot": 0,
        "tle_line1": "1 43719U 18096A   25354.96720539  .00000718  00000+0  10505-3 0  9997",
        "tle_line2": "2 43719  98.0094  57.9050 0001038  52.7290 307.4016 14.78665659381087"
      },
      "geometry": {
        "type": "Point",
        "coordinates": [
          56.98121289966642,
          8.423205265961629
        ]
      }
    }
  ]
}